<?xml version="1.0" encoding="UTF-8"?>
<gpx xmlns="http://www.topografix.com/GPX/1/1" xmlns:gpxtpx="http://www.garmin.com/xmlschemas/TrackPointExtension/v1" xmlns:xsi="http://www.w3.org/2001/XMLSchema-instance" xsi:schemaLocation="http://www.topografix.com/GPX/1/1 http://www.topografix.com/GPX/1/1/gpx.xsd" version="1.1" creator="gpx.py -- https://github.com/tkrajina/gpxpy">
  <trk>
    <name>gpx from keep</name>
    <type>Run</type>
    <trkseg>
      <trkpt lat="30.207403614997762" lon="120.15818612034403">
        <ele>8.145793434278946</ele>
        <time>2026-07-19T09:51:16Z</time>
      </trkpt>
      <trkpt lat="30.20726151668179" lon="120.15788964073839">
        <ele>6.5107018034905195</ele>
        <time>2026-07-19T09:51:28Z</time>
      </trkpt>
      <trkpt lat="30.20720401446879" lon="120.15778077683753">
        <ele>6.103315877728164</ele>
        <time>2026-07-19T09:51:32Z</time>
      </trkpt>
      <trkpt lat="30.20709948788174" lon="120.15756895399825">
        <ele>6.529469941742718</ele>
        <time>2026-07-19T09:51:40Z</time>
      </trkpt>
      <trkpt lat="30.207080175145474" lon="120.15745765042448">
        <ele>9.260633416473866</ele>
        <time>2026-07-19T09:51:44Z</time>
      </trkpt>
      <trkpt lat="30.206975994928406" lon="120.15728234161732">
        <ele>9.893551893532276</ele>
        <time>2026-07-19T09:51:52Z</time>
      </trkpt>
      <trkpt lat="30.206944813201" lon="120.1571570136742">
        <ele>10.259132231585681</ele>
        <time>2026-07-19T09:51:56Z</time>
      </trkpt>
      <trkpt lat="30.20677603669232" lon="120.15684560498158">
        <ele>8.941264418885112</ele>
        <time>2026-07-19T09:52:08Z</time>
      </trkpt>
      <trkpt lat="30.206740563811223" lon="120.15672957064928">
        <ele>8.287511977367103</ele>
        <time>2026-07-19T09:52:12Z</time>
      </trkpt>
      <trkpt lat="30.206683006608127" lon="120.15663682950974">
        <ele>7.816138808615506</ele>
        <time>2026-07-19T09:52:16Z</time>
      </trkpt>
      <trkpt lat="30.20656201136365" lon="120.15632056375742">
        <ele>8.63106535654515</ele>
        <time>2026-07-19T09:52:27Z</time>
      </trkpt>
      <trkpt lat="30.206423175050546" lon="120.1560016349481">
        <ele>8.999135423451662</ele>
        <time>2026-07-19T09:52:39Z</time>
      </trkpt>
      <trkpt lat="30.206326493695244" lon="120.15576179726528">
        <ele>9.460283399559557</ele>
        <time>2026-07-19T09:52:48Z</time>
      </trkpt>
      <trkpt lat="30.206303434998905" lon="120.15566749681102">
        <ele>9.783919064328074</ele>
        <time>2026-07-19T09:52:51Z</time>
      </trkpt>
      <trkpt lat="30.206243433315244" lon="120.1555141344567">
        <ele>10.796102186664939</ele>
        <time>2026-07-19T09:52:57Z</time>
      </trkpt>
      <trkpt lat="30.206195869396076" lon="120.15544426684396">
        <ele>10.6743188444525</ele>
        <time>2026-07-19T09:53:00Z</time>
      </trkpt>
      <trkpt lat="30.206144357743465" lon="120.15527478015353">
        <ele>10.596549645066261</ele>
        <time>2026-07-19T09:53:06Z</time>
      </trkpt>
      <trkpt lat="30.206021840677426" lon="120.15504159122146">
        <ele>9.902325480245054</ele>
        <time>2026-07-19T09:53:15Z</time>
      </trkpt>
      <trkpt lat="30.20597481839871" lon="120.15485440791919">
        <ele>10.43675443995744</ele>
        <time>2026-07-19T09:53:21Z</time>
      </trkpt>
      <trkpt lat="30.205885671510412" lon="120.15466500092593">
        <ele>11.221361514180899</ele>
        <time>2026-07-19T09:53:28Z</time>
      </trkpt>
      <trkpt lat="30.20578264171456" lon="120.15432243394264">
        <ele>11.323253967799246</ele>
        <time>2026-07-19T09:53:40Z</time>
      </trkpt>
      <trkpt lat="30.20565409843122" lon="120.15397933273645">
        <ele>10.929077269509435</ele>
        <time>2026-07-19T09:53:52Z</time>
      </trkpt>
      <trkpt lat="30.20554302465288" lon="120.15362468202349">
        <ele>9.481714923866093</ele>
        <time>2026-07-19T09:54:04Z</time>
      </trkpt>
      <trkpt lat="30.205428739825813" lon="120.15328840639759">
        <ele>10.50105263851583</ele>
        <time>2026-07-19T09:54:16Z</time>
      </trkpt>
      <trkpt lat="30.20530083348693" lon="120.1529548546984">
        <ele>10.595177662558854</ele>
        <time>2026-07-19T09:54:28Z</time>
      </trkpt>
      <trkpt lat="30.20518452612786" lon="120.15260985731824">
        <ele>11.575195806100965</ele>
        <time>2026-07-19T09:54:40Z</time>
      </trkpt>
      <trkpt lat="30.205066388043317" lon="120.1522621662352">
        <ele>9.79793975315988</ele>
        <time>2026-07-19T09:54:52Z</time>
      </trkpt>
      <trkpt lat="30.20496534741426" lon="120.15192661979533">
        <ele>9.988608105108142</ele>
        <time>2026-07-19T09:55:04Z</time>
      </trkpt>
      <trkpt lat="30.204841877817085" lon="120.15157157121673">
        <ele>10.734742959961295</ele>
        <time>2026-07-19T09:55:16Z</time>
      </trkpt>
      <trkpt lat="30.204720577616627" lon="120.15121226128413">
        <ele>8.869531995616853</ele>
        <time>2026-07-19T09:55:29Z</time>
      </trkpt>
      <trkpt lat="30.204607312106294" lon="120.15087184841967">
        <ele>9.838818912394345</ele>
        <time>2026-07-19T09:55:41Z</time>
      </trkpt>
      <trkpt lat="30.204502033724552" lon="120.15052745597015">
        <ele>11.272698782384396</ele>
        <time>2026-07-19T09:55:53Z</time>
      </trkpt>
      <trkpt lat="30.20441519042687" lon="120.15022456699765">
        <ele>11.530690331943333</ele>
        <time>2026-07-19T09:56:03Z</time>
      </trkpt>
      <trkpt lat="30.204310625370958" lon="120.14987226851308">
        <ele>11.213903371244669</ele>
        <time>2026-07-19T09:56:15Z</time>
      </trkpt>
      <trkpt lat="30.204206249179474" lon="120.14952808986519">
        <ele>10.410432131960988</ele>
        <time>2026-07-19T09:56:27Z</time>
      </trkpt>
      <trkpt lat="30.204107794813364" lon="120.14917299833817">
        <ele>9.084769393317401</ele>
        <time>2026-07-19T09:56:39Z</time>
      </trkpt>
      <trkpt lat="30.204002495831563" lon="120.14882166194982">
        <ele>11.375193813815713</ele>
        <time>2026-07-19T09:56:51Z</time>
      </trkpt>
      <trkpt lat="30.203894002511923" lon="120.1484697963846">
        <ele>9.331511721014977</ele>
        <time>2026-07-19T09:57:03Z</time>
      </trkpt>
      <trkpt lat="30.203836663161553" lon="120.14819499325237">
        <ele>7.499703395180404</ele>
        <time>2026-07-19T09:57:12Z</time>
      </trkpt>
      <trkpt lat="30.203719718910634" lon="120.14782977490614">
        <ele>9.291956399567425</ele>
        <time>2026-07-19T09:57:24Z</time>
      </trkpt>
      <trkpt lat="30.203602496574167" lon="120.14744002664898">
        <ele>9.894913339056075</ele>
        <time>2026-07-19T09:57:37Z</time>
      </trkpt>
      <trkpt lat="30.203498031481164" lon="120.14709401256044">
        <ele>9.529195026494563</ele>
        <time>2026-07-19T09:57:49Z</time>
      </trkpt>
      <trkpt lat="30.203378335077158" lon="120.14670487954275">
        <ele>9.735742992721498</ele>
        <time>2026-07-19T09:58:02Z</time>
      </trkpt>
      <trkpt lat="30.20335683972904" lon="120.14659858723333">
        <ele>9.713720051571727</ele>
        <time>2026-07-19T09:58:05Z</time>
      </trkpt>
      <trkpt lat="30.20332378223448" lon="120.1465196894402">
        <ele>9.893859989009798</ele>
        <time>2026-07-19T09:58:08.100000Z</time>
      </trkpt>
      <trkpt lat="30.20330528731083" lon="120.14641666965996">
        <ele>9.867748143151402</ele>
        <time>2026-07-19T09:58:11Z</time>
      </trkpt>
      <trkpt lat="30.203179131635633" lon="120.14603447515907">
        <ele>10.315423695370555</ele>
        <time>2026-07-19T09:58:23Z</time>
      </trkpt>
      <trkpt lat="30.203071342184888" lon="120.14567041098086">
        <ele>11.423118839040399</ele>
        <time>2026-07-19T09:58:35Z</time>
      </trkpt>
      <trkpt lat="30.203034160658905" lon="120.1455398204492">
        <ele>11.96272595692426</ele>
        <time>2026-07-19T09:58:44.100000Z</time>
      </trkpt>
      <trkpt lat="30.20300720429126" lon="120.14547662234206">
        <ele>10.715179039165378</ele>
        <time>2026-07-19T09:58:50Z</time>
      </trkpt>
      <trkpt lat="30.20296384688809" lon="120.14526637984474">
        <ele>10.913155765272677</ele>
        <time>2026-07-19T09:58:59Z</time>
      </trkpt>
      <trkpt lat="30.202864994747117" lon="120.14493989970921">
        <ele>11.300587863661349</ele>
        <time>2026-07-19T09:59:08Z</time>
      </trkpt>
      <trkpt lat="30.202827647956582" lon="120.14476777444771">
        <ele>11.442755360156298</ele>
        <time>2026-07-19T09:59:14Z</time>
      </trkpt>
      <trkpt lat="30.202888200925454" lon="120.14508525873103">
        <ele>11.283916261978447</ele>
        <time>2026-07-19T09:59:23Z</time>
      </trkpt>
      <trkpt lat="30.202986101961002" lon="120.14535682404221">
        <ele>11.395197753794491</ele>
        <time>2026-07-19T09:59:32Z</time>
      </trkpt>
      <trkpt lat="30.203002935388135" lon="120.14545893616932">
        <ele>11.345744933001697</ele>
        <time>2026-07-19T09:59:35Z</time>
      </trkpt>
      <trkpt lat="30.203038460416167" lon="120.14554471789097">
        <ele>12.680639167316258</ele>
        <time>2026-07-19T09:59:38Z</time>
      </trkpt>
      <trkpt lat="30.203144446051777" lon="120.14593353847">
        <ele>11.841895596124232</ele>
        <time>2026-07-19T09:59:50Z</time>
      </trkpt>
      <trkpt lat="30.203246280720624" lon="120.14627769891617">
        <ele>10.51386939547956</ele>
        <time>2026-07-19T10:00:01Z</time>
      </trkpt>
      <trkpt lat="30.203365480566976" lon="120.14665377547547">
        <ele>11.15834006946534</ele>
        <time>2026-07-19T10:00:13Z</time>
      </trkpt>
      <trkpt lat="30.203404328767185" lon="120.1468065922049">
        <ele>10.750516864471138</ele>
        <time>2026-07-19T10:00:19.100000Z</time>
      </trkpt>
      <trkpt lat="30.203404328767185" lon="120.1468065922049">
        <ele>10.750516864471138</ele>
        <time>2026-07-19T10:00:19.200000Z</time>
      </trkpt>
    </trkseg>
  </trk>
</gpx>