<?xml version="1.0" encoding="UTF-8"?>
<gpx xmlns="http://www.topografix.com/GPX/1/1" xmlns:gpxtpx="http://www.garmin.com/xmlschemas/TrackPointExtension/v1" xmlns:xsi="http://www.w3.org/2001/XMLSchema-instance" xsi:schemaLocation="http://www.topografix.com/GPX/1/1 http://www.topografix.com/GPX/1/1/gpx.xsd" version="1.1" creator="gpx.py -- https://github.com/tkrajina/gpxpy">
  <trk>
    <name>gpx from keep</name>
    <type>Run</type>
    <trkseg>
      <trkpt lat="30.207464828378708" lon="120.15832720012202">
        <ele>8.519319993100696</ele>
        <time>2026-09-05T10:51:34Z</time>
      </trkpt>
      <trkpt lat="30.207291713355545" lon="120.15798442273514">
        <ele>7.081884115003049</ele>
        <time>2026-09-05T10:51:46Z</time>
      </trkpt>
      <trkpt lat="30.2071594902447" lon="120.15773967543306">
        <ele>6.578330556862056</ele>
        <time>2026-09-05T10:51:54.100000Z</time>
      </trkpt>
      <trkpt lat="30.207050004167808" lon="120.15743659161575">
        <ele>8.274878765456378</ele>
        <time>2026-09-05T10:52:05Z</time>
      </trkpt>
      <trkpt lat="30.206887869567463" lon="120.15706123211397">
        <ele>9.551387000828981</ele>
        <time>2026-09-05T10:52:17.100000Z</time>
      </trkpt>
      <trkpt lat="30.20679451759588" lon="120.15688722497457">
        <ele>8.431556329131126</ele>
        <time>2026-09-05T10:52:23Z</time>
      </trkpt>
      <trkpt lat="30.206767026470693" lon="120.15677896143723">
        <ele>8.13738158531487</ele>
        <time>2026-09-05T10:52:26Z</time>
      </trkpt>
      <trkpt lat="30.20671373140375" lon="120.15669663811413">
        <ele>7.550951912067831</ele>
        <time>2026-09-05T10:52:29Z</time>
      </trkpt>
      <trkpt lat="30.20663553587903" lon="120.1564982343762">
        <ele>7.464793527498841</ele>
        <time>2026-09-05T10:52:35.100000Z</time>
      </trkpt>
      <trkpt lat="30.2065848780415" lon="120.15641942584304">
        <ele>7.973488302901387</ele>
        <time>2026-09-05T10:52:38Z</time>
      </trkpt>
      <trkpt lat="30.20644969227829" lon="120.15607854418803">
        <ele>7.099885383620858</ele>
        <time>2026-09-05T10:52:50.100000Z</time>
      </trkpt>
      <trkpt lat="30.206318936376466" lon="120.15571074720215">
        <ele>8.703592393547297</ele>
        <time>2026-09-05T10:53:02Z</time>
      </trkpt>
      <trkpt lat="30.206269617982542" lon="120.15563259668984">
        <ele>8.182732979767025</ele>
        <time>2026-09-05T10:53:05Z</time>
      </trkpt>
      <trkpt lat="30.206210169436616" lon="120.15544929375828">
        <ele>8.708487388677895</ele>
        <time>2026-09-05T10:53:11Z</time>
      </trkpt>
      <trkpt lat="30.206125270147812" lon="120.15529361785919">
        <ele>8.365175439976156</ele>
        <time>2026-09-05T10:53:17Z</time>
      </trkpt>
      <trkpt lat="30.205992606657237" lon="120.15494099747566">
        <ele>8.844317024573684</ele>
        <time>2026-09-05T10:53:29Z</time>
      </trkpt>
      <trkpt lat="30.205871078534432" lon="120.15462263983201">
        <ele>10.30241243634373</ele>
        <time>2026-09-05T10:53:39.100000Z</time>
      </trkpt>
      <trkpt lat="30.2057639079063" lon="120.15425934699729">
        <ele>9.058162794448435</ele>
        <time>2026-09-05T10:53:51Z</time>
      </trkpt>
      <trkpt lat="30.205657687381006" lon="120.15399343793148">
        <ele>7.739009105600417</ele>
        <time>2026-09-05T10:54:00Z</time>
      </trkpt>
      <trkpt lat="30.205576642970954" lon="120.15374153252002">
        <ele>6.509253682568669</ele>
        <time>2026-09-05T10:54:09.100000Z</time>
      </trkpt>
      <trkpt lat="30.20550683920276" lon="120.1534943826462">
        <ele>7.092646077275276</ele>
        <time>2026-09-05T10:54:18Z</time>
      </trkpt>
      <trkpt lat="30.205365011040964" lon="120.1531691231096">
        <ele>8.406359961256385</ele>
        <time>2026-09-05T10:54:30Z</time>
      </trkpt>
      <trkpt lat="30.20526687135636" lon="120.15283165172464">
        <ele>7.96252584643662</ele>
        <time>2026-09-05T10:54:42.100000Z</time>
      </trkpt>
      <trkpt lat="30.205146180231775" lon="120.15248313399717">
        <ele>7.657501209527254</ele>
        <time>2026-09-05T10:54:54Z</time>
      </trkpt>
      <trkpt lat="30.205015353511072" lon="120.15210978792118">
        <ele>9.24648822657764</ele>
        <time>2026-09-05T10:55:06.100000Z</time>
      </trkpt>
      <trkpt lat="30.204908711098177" lon="120.15181266092033">
        <ele>9.762581215240061</ele>
        <time>2026-09-05T10:55:15Z</time>
      </trkpt>
      <trkpt lat="30.204772260103674" lon="120.15141830142888">
        <ele>9.537351038306952</ele>
        <time>2026-09-05T10:55:27.100000Z</time>
      </trkpt>
      <trkpt lat="30.204759219765776" lon="120.15131563683306">
        <ele>9.232738726772368</ele>
        <time>2026-09-05T10:55:30.100000Z</time>
      </trkpt>
      <trkpt lat="30.20470741396293" lon="120.1512287422523">
        <ele>8.484944340772927</ele>
        <time>2026-09-05T10:55:33.100000Z</time>
      </trkpt>
      <trkpt lat="30.20463660379989" lon="120.15103914117788">
        <ele>8.241112197749317</ele>
        <time>2026-09-05T10:55:39.100000Z</time>
      </trkpt>
      <trkpt lat="30.204605437054106" lon="120.1509058595905">
        <ele>8.076057184487581</ele>
        <time>2026-09-05T10:55:43.100000Z</time>
      </trkpt>
      <trkpt lat="30.204549184796544" lon="120.15078170480098">
        <ele>8.478216527961195</ele>
        <time>2026-09-05T10:55:47.100000Z</time>
      </trkpt>
      <trkpt lat="30.204478503097018" lon="120.15055232907079">
        <ele>9.131089361384511</ele>
        <time>2026-09-05T10:55:54Z</time>
      </trkpt>
      <trkpt lat="30.20444640193178" lon="120.1503388739424">
        <ele>10.222088658250868</ele>
        <time>2026-09-05T10:56:00.100000Z</time>
      </trkpt>
      <trkpt lat="30.20435876684216" lon="120.15004170537019">
        <ele>9.637820119038224</ele>
        <time>2026-09-05T10:56:09.100000Z</time>
      </trkpt>
      <trkpt lat="30.204298175455456" lon="120.14987815750519">
        <ele>9.569055340252817</ele>
        <time>2026-09-05T10:56:15.100000Z</time>
      </trkpt>
      <trkpt lat="30.20420773663417" lon="120.14949313807857">
        <ele>6.8374233562499285</ele>
        <time>2026-09-05T10:56:27.100000Z</time>
      </trkpt>
      <trkpt lat="30.204095514180203" lon="120.14914493332984">
        <ele>7.924739294685423</ele>
        <time>2026-09-05T10:56:39Z</time>
      </trkpt>
      <trkpt lat="30.203977684773943" lon="120.14877321424622">
        <ele>8.413541822694242</ele>
        <time>2026-09-05T10:56:52.100000Z</time>
      </trkpt>
      <trkpt lat="30.20386777092029" lon="120.14841582276219">
        <ele>7.940574999898672</ele>
        <time>2026-09-05T10:57:04.100000Z</time>
      </trkpt>
      <trkpt lat="30.203803895852325" lon="120.14813320889533">
        <ele>7.446267552673817</ele>
        <time>2026-09-05T10:57:13Z</time>
      </trkpt>
      <trkpt lat="30.20376908733436" lon="120.14805287765236">
        <ele>7.231369600631297</ele>
        <time>2026-09-05T10:57:16Z</time>
      </trkpt>
      <trkpt lat="30.20375229766167" lon="120.14795989565499">
        <ele>7.704185599461198</ele>
        <time>2026-09-05T10:57:19.100000Z</time>
      </trkpt>
      <trkpt lat="30.203700528929684" lon="120.14780499847386">
        <ele>8.384912722744048</ele>
        <time>2026-09-05T10:57:25Z</time>
      </trkpt>
      <trkpt lat="30.203716162176313" lon="120.1479361586204">
        <ele>8.514017814770341</ele>
        <time>2026-09-05T10:57:28.100000Z</time>
      </trkpt>
      <trkpt lat="30.203761741736994" lon="120.14801431329987">
        <ele>8.824631096795201</ele>
        <time>2026-09-05T10:57:31Z</time>
      </trkpt>
      <trkpt lat="30.203879119632003" lon="120.14838607876793">
        <ele>8.97304684203118</ele>
        <time>2026-09-05T10:57:43Z</time>
      </trkpt>
      <trkpt lat="30.203960510605256" lon="120.14869182703937">
        <ele>8.685169434174895</ele>
        <time>2026-09-05T10:57:53Z</time>
      </trkpt>
      <trkpt lat="30.204070560893754" lon="120.14904120855806">
        <ele>9.310706251300871</ele>
        <time>2026-09-05T10:58:04.100000Z</time>
      </trkpt>
      <trkpt lat="30.204195107252833" lon="120.14940507941817">
        <ele>9.981866083107889</ele>
        <time>2026-09-05T10:58:16Z</time>
      </trkpt>
      <trkpt lat="30.20432353486239" lon="120.1497858916271">
        <ele>9.86860532965511</ele>
        <time>2026-09-05T10:58:28Z</time>
      </trkpt>
      <trkpt lat="30.204432044086435" lon="120.15017566735567">
        <ele>11.117664036341012</ele>
        <time>2026-09-05T10:58:40Z</time>
      </trkpt>
      <trkpt lat="30.20443762722049" lon="120.15027280847876">
        <ele>11.146705939434469</ele>
        <time>2026-09-05T10:58:43.100000Z</time>
      </trkpt>
      <trkpt lat="30.204515057262363" lon="120.15046394069597">
        <ele>11.191917984746397</ele>
        <time>2026-09-05T10:58:49Z</time>
      </trkpt>
      <trkpt lat="30.20458189010997" lon="120.15075512144335">
        <ele>11.539102030918002</ele>
        <time>2026-09-05T10:58:58Z</time>
      </trkpt>
      <trkpt lat="30.20466970790713" lon="120.15103369132606">
        <ele>10.819307186640799</ele>
        <time>2026-09-05T10:59:07Z</time>
      </trkpt>
      <trkpt lat="30.204751993367736" lon="120.15121855677587">
        <ele>9.817987635731697</ele>
        <time>2026-09-05T10:59:13.100000Z</time>
      </trkpt>
      <trkpt lat="30.204869877221974" lon="120.15158796835406">
        <ele>10.211367411538959</ele>
        <time>2026-09-05T10:59:25.100000Z</time>
      </trkpt>
      <trkpt lat="30.204963281625453" lon="120.15187267997612">
        <ele>11.63119778688997</ele>
        <time>2026-09-05T10:59:34.100000Z</time>
      </trkpt>
      <trkpt lat="30.205012715862114" lon="120.15196260077602">
        <ele>11.797526765614748</ele>
        <time>2026-09-05T10:59:37.100000Z</time>
      </trkpt>
      <trkpt lat="30.205051624136193" lon="120.15214139941509">
        <ele>11.24869435839355</ele>
        <time>2026-09-05T10:59:43.100000Z</time>
      </trkpt>
      <trkpt lat="30.205212407687746" lon="120.15254361855189">
        <ele>11.14756088051945</ele>
        <time>2026-09-05T10:59:56.100000Z</time>
      </trkpt>
      <trkpt lat="30.20524689006053" lon="120.15264813934843">
        <ele>10.395329765975475</ele>
        <time>2026-09-05T11:00:04Z</time>
      </trkpt>
    </trkseg>
  </trk>
</gpx>