<?xml version="1.0" encoding="UTF-8"?>
<gpx xmlns="http://www.topografix.com/GPX/1/1" xmlns:gpxtpx="http://www.garmin.com/xmlschemas/TrackPointExtension/v1" xmlns:xsi="http://www.w3.org/2001/XMLSchema-instance" xsi:schemaLocation="http://www.topografix.com/GPX/1/1 http://www.topografix.com/GPX/1/1/gpx.xsd" version="1.1" creator="gpx.py -- https://github.com/tkrajina/gpxpy">
  <trk>
    <name>gpx from keep</name>
    <type>Run</type>
    <trkseg>
      <trkpt lat="30.207369497515135" lon="120.15819700088427">
        <ele>8.72525641282594</ele>
        <time>2026-08-30T13:13:16.400000Z</time>
      </trkpt>
      <trkpt lat="30.20723590443846" lon="120.15786008387336">
        <ele>7.068880200386047</ele>
        <time>2026-08-30T13:13:28.100000Z</time>
      </trkpt>
      <trkpt lat="30.20705923746444" lon="120.15747212454589">
        <ele>7.40105127543211</ele>
        <time>2026-08-30T13:13:40.100000Z</time>
      </trkpt>
      <trkpt lat="30.206997503963645" lon="120.15736927754212">
        <ele>11.022580398246646</ele>
        <time>2026-08-30T13:13:44.100000Z</time>
      </trkpt>
      <trkpt lat="30.206961179977498" lon="120.15724029197818">
        <ele>11.559051713906229</ele>
        <time>2026-08-30T13:13:48.100000Z</time>
      </trkpt>
      <trkpt lat="30.206889116900427" lon="120.15712450640589">
        <ele>11.288081159815192</ele>
        <time>2026-08-30T13:13:52.100000Z</time>
      </trkpt>
      <trkpt lat="30.20673427731444" lon="120.1567720828793">
        <ele>12.107764600776136</ele>
        <time>2026-08-30T13:14:04Z</time>
      </trkpt>
      <trkpt lat="30.20656651835681" lon="120.15639961057205">
        <ele>11.841490586288273</ele>
        <time>2026-08-30T13:14:16.100000Z</time>
      </trkpt>
      <trkpt lat="30.2064231204341" lon="120.15604861780963">
        <ele>11.798772665672004</ele>
        <time>2026-08-30T13:14:28Z</time>
      </trkpt>
      <trkpt lat="30.206302850348287" lon="120.1557411778241">
        <ele>12.137269617058337</ele>
        <time>2026-08-30T13:14:39Z</time>
      </trkpt>
      <trkpt lat="30.2062043689806" lon="120.15548454518854">
        <ele>11.469831434078515</ele>
        <time>2026-08-30T13:14:48Z</time>
      </trkpt>
      <trkpt lat="30.206159535780802" lon="120.15540268434667">
        <ele>10.532987291924655</ele>
        <time>2026-08-30T13:14:51Z</time>
      </trkpt>
      <trkpt lat="30.206074223337936" lon="120.15516528172559">
        <ele>10.062019512057304</ele>
        <time>2026-08-30T13:15:00Z</time>
      </trkpt>
      <trkpt lat="30.205997556901533" lon="120.15501346273228">
        <ele>11.129869488067925</ele>
        <time>2026-08-30T13:15:06Z</time>
      </trkpt>
      <trkpt lat="30.2058781688317" lon="120.15469874660653">
        <ele>10.580544999800622</ele>
        <time>2026-08-30T13:15:18Z</time>
      </trkpt>
      <trkpt lat="30.205763732648336" lon="120.15432989525138">
        <ele>11.741919776424766</ele>
        <time>2026-08-30T13:15:31.100000Z</time>
      </trkpt>
      <trkpt lat="30.205635214307755" lon="120.15397743429386">
        <ele>11.851555783301592</ele>
        <time>2026-08-30T13:15:43.100000Z</time>
      </trkpt>
      <trkpt lat="30.205507988241393" lon="120.15359356156377">
        <ele>9.59012414701283</ele>
        <time>2026-08-30T13:15:55Z</time>
      </trkpt>
      <trkpt lat="30.205378974048944" lon="120.15322370259717">
        <ele>10.705987934954464</ele>
        <time>2026-08-30T13:16:07Z</time>
      </trkpt>
      <trkpt lat="30.205250062679102" lon="120.15285401668527">
        <ele>11.45333506911993</ele>
        <time>2026-08-30T13:16:19Z</time>
      </trkpt>
      <trkpt lat="30.205137028168206" lon="120.1525025849998">
        <ele>13.201980201527476</ele>
        <time>2026-08-30T13:16:31.100000Z</time>
      </trkpt>
      <trkpt lat="30.205023405356332" lon="120.15217268016372">
        <ele>10.921467217616737</ele>
        <time>2026-08-30T13:16:43Z</time>
      </trkpt>
      <trkpt lat="30.204885993511223" lon="120.1517990703145">
        <ele>12.131551974453032</ele>
        <time>2026-08-30T13:16:55.100000Z</time>
      </trkpt>
      <trkpt lat="30.204754528582583" lon="120.15142147272509">
        <ele>10.168744844384491</ele>
        <time>2026-08-30T13:17:07Z</time>
      </trkpt>
      <trkpt lat="30.20461867650221" lon="120.15104817402022">
        <ele>9.923410427756608</ele>
        <time>2026-08-30T13:17:19Z</time>
      </trkpt>
      <trkpt lat="30.204518108631547" lon="120.15069947230185">
        <ele>11.106993158347905</ele>
        <time>2026-08-30T13:17:29Z</time>
      </trkpt>
      <trkpt lat="30.204451009906965" lon="120.15041801594774">
        <ele>11.955854527652264</ele>
        <time>2026-08-30T13:17:37.100000Z</time>
      </trkpt>
      <trkpt lat="30.204327446401606" lon="120.15002514772416">
        <ele>12.558968920260668</ele>
        <time>2026-08-30T13:17:49Z</time>
      </trkpt>
      <trkpt lat="30.20422573149243" lon="120.14967769888446">
        <ele>11.934057655744255</ele>
        <time>2026-08-30T13:17:59Z</time>
      </trkpt>
      <trkpt lat="30.204116566979863" lon="120.14928654419539">
        <ele>11.019861167296767</ele>
        <time>2026-08-30T13:18:11Z</time>
      </trkpt>
      <trkpt lat="30.204024434865442" lon="120.14897666990008">
        <ele>10.988321362063289</ele>
        <time>2026-08-30T13:18:20Z</time>
      </trkpt>
      <trkpt lat="30.203903205614942" lon="120.14858267166494">
        <ele>9.48517548572272</ele>
        <time>2026-08-30T13:18:32.100000Z</time>
      </trkpt>
      <trkpt lat="30.20379869295962" lon="120.148192485979">
        <ele>8.194767087697983</ele>
        <time>2026-08-30T13:18:44Z</time>
      </trkpt>
      <trkpt lat="30.20370563852433" lon="120.14789506750485">
        <ele>10.177787105552852</ele>
        <time>2026-08-30T13:18:53.100000Z</time>
      </trkpt>
      <trkpt lat="30.203616367940736" lon="120.14759058186607">
        <ele>9.770789630711079</ele>
        <time>2026-08-30T13:19:02Z</time>
      </trkpt>
      <trkpt lat="30.203596536772086" lon="120.1474892622066">
        <ele>9.987891133874655</ele>
        <time>2026-08-30T13:19:05.100000Z</time>
      </trkpt>
      <trkpt lat="30.20355639153823" lon="120.14739056528346">
        <ele>9.68772587645799</ele>
        <time>2026-08-30T13:19:08.100000Z</time>
      </trkpt>
      <trkpt lat="30.203535076056554" lon="120.14728526167008">
        <ele>10.130102853290737</ele>
        <time>2026-08-30T13:19:11Z</time>
      </trkpt>
      <trkpt lat="30.203493813186086" lon="120.14719182392878">
        <ele>11.152837526984513</ele>
        <time>2026-08-30T13:19:14.100000Z</time>
      </trkpt>
      <trkpt lat="30.203477638355476" lon="120.14708446525">
        <ele>10.7509372131899</ele>
        <time>2026-08-30T13:19:17Z</time>
      </trkpt>
      <trkpt lat="30.203377508149284" lon="120.14677630000192">
        <ele>10.755653208121657</ele>
        <time>2026-08-30T13:19:26Z</time>
      </trkpt>
      <trkpt lat="30.203282996475206" lon="120.14643450511808">
        <ele>12.43038560077548</ele>
        <time>2026-08-30T13:19:36.100000Z</time>
      </trkpt>
      <trkpt lat="30.203164393059748" lon="120.14603120548823">
        <ele>11.67184598557651</ele>
        <time>2026-08-30T13:19:48.100000Z</time>
      </trkpt>
      <trkpt lat="30.203045216651528" lon="120.14563382119339">
        <ele>13.002860022708774</ele>
        <time>2026-08-30T13:20:00Z</time>
      </trkpt>
      <trkpt lat="30.202997619211352" lon="120.14551094333079">
        <ele>13.68605955131352</ele>
        <time>2026-08-30T13:20:04Z</time>
      </trkpt>
      <trkpt lat="30.202980115436073" lon="120.14555061294789">
        <ele>13.806349927559495</ele>
        <time>2026-08-30T13:20:10.100000Z</time>
      </trkpt>
    </trkseg>
  </trk>
</gpx>