<?xml version="1.0" encoding="UTF-8"?>
<gpx xmlns="http://www.topografix.com/GPX/1/1" xmlns:gpxtpx="http://www.garmin.com/xmlschemas/TrackPointExtension/v1" xmlns:xsi="http://www.w3.org/2001/XMLSchema-instance" xsi:schemaLocation="http://www.topografix.com/GPX/1/1 http://www.topografix.com/GPX/1/1/gpx.xsd" version="1.1" creator="gpx.py -- https://github.com/tkrajina/gpxpy">
  <trk>
    <name>gpx from keep</name>
    <type>Run</type>
    <trkseg>
      <trkpt lat="30.20752287341789" lon="120.15847904859194">
        <ele>6.8417060961946845</ele>
        <time>2026-08-15T12:52:56Z</time>
      </trkpt>
      <trkpt lat="30.20736773179168" lon="120.15816642272745">
        <ele>6.362507600337267</ele>
        <time>2026-08-15T12:53:08Z</time>
      </trkpt>
      <trkpt lat="30.207341877152654" lon="120.15805730331155">
        <ele>7.924864434637129</ele>
        <time>2026-08-15T12:53:11Z</time>
      </trkpt>
      <trkpt lat="30.207268383995267" lon="120.15788006730551">
        <ele>7.608608608134091</ele>
        <time>2026-08-15T12:53:17Z</time>
      </trkpt>
      <trkpt lat="30.20710329215592" lon="120.15750741591793">
        <ele>8.642441907897592</ele>
        <time>2026-08-15T12:53:29.100000Z</time>
      </trkpt>
      <trkpt lat="30.20701014783605" lon="120.1573486796501">
        <ele>9.758416601456702</ele>
        <time>2026-08-15T12:53:35Z</time>
      </trkpt>
      <trkpt lat="30.206903526877838" lon="120.15707150274304">
        <ele>10.030349952168763</ele>
        <time>2026-08-15T12:53:44.100000Z</time>
      </trkpt>
      <trkpt lat="30.206765561737512" lon="120.15679599265277">
        <ele>8.562031309120357</ele>
        <time>2026-08-15T12:53:53.100000Z</time>
      </trkpt>
      <trkpt lat="30.206638264289353" lon="120.15653549523653">
        <ele>7.930703387595713</ele>
        <time>2026-08-15T12:54:02.100000Z</time>
      </trkpt>
      <trkpt lat="30.206544735073926" lon="120.15626123421151">
        <ele>8.441053196787834</ele>
        <time>2026-08-15T12:54:11.100000Z</time>
      </trkpt>
      <trkpt lat="30.206465858840964" lon="120.15609712900292">
        <ele>7.797279198653996</ele>
        <time>2026-08-15T12:54:17.100000Z</time>
      </trkpt>
      <trkpt lat="30.206451811914512" lon="120.15600629648466">
        <ele>7.811474405229092</ele>
        <time>2026-08-15T12:54:20.100000Z</time>
      </trkpt>
      <trkpt lat="30.206331399914205" lon="120.15577090615677">
        <ele>8.202854883857071</ele>
        <time>2026-08-15T12:54:29.100000Z</time>
      </trkpt>
      <trkpt lat="30.206312448037913" lon="120.15567568708208">
        <ele>8.626570048741996</ele>
        <time>2026-08-15T12:54:32.100000Z</time>
      </trkpt>
      <trkpt lat="30.206164556472235" lon="120.1553463423059">
        <ele>7.969797550700605</ele>
        <time>2026-08-15T12:54:44Z</time>
      </trkpt>
      <trkpt lat="30.2060392339808" lon="120.15507427276428">
        <ele>8.859695680439472</ele>
        <time>2026-08-15T12:54:54.100000Z</time>
      </trkpt>
      <trkpt lat="30.20590828396751" lon="120.15473838757933">
        <ele>9.019903466105461</ele>
        <time>2026-08-15T12:55:06.100000Z</time>
      </trkpt>
      <trkpt lat="30.205862645356735" lon="120.15456023162805">
        <ele>9.888521311804652</ele>
        <time>2026-08-15T12:55:12.100000Z</time>
      </trkpt>
      <trkpt lat="30.20579485333407" lon="120.15439824412256">
        <ele>10.27171131130308</ele>
        <time>2026-08-15T12:55:18.100000Z</time>
      </trkpt>
      <trkpt lat="30.205784261280833" lon="120.15430636508324">
        <ele>9.673397317528725</ele>
        <time>2026-08-15T12:55:21.100000Z</time>
      </trkpt>
      <trkpt lat="30.205658780619135" lon="120.15396956699377">
        <ele>8.81118793413043</ele>
        <time>2026-08-15T12:55:33.100000Z</time>
      </trkpt>
      <trkpt lat="30.205534753815602" lon="120.15360890294149">
        <ele>7.912937690503895</ele>
        <time>2026-08-15T12:55:45.100000Z</time>
      </trkpt>
      <trkpt lat="30.205404111250036" lon="120.15322460855731">
        <ele>9.415150665678084</ele>
        <time>2026-08-15T12:55:57Z</time>
      </trkpt>
      <trkpt lat="30.205265021310158" lon="120.15284912218074">
        <ele>10.091531812213361</ele>
        <time>2026-08-15T12:56:09.100000Z</time>
      </trkpt>
      <trkpt lat="30.205138516587287" lon="120.15246249173607">
        <ele>10.077671261504292</ele>
        <time>2026-08-15T12:56:21.100000Z</time>
      </trkpt>
      <trkpt lat="30.205121390894806" lon="120.15238072563967">
        <ele>9.081585060805082</ele>
        <time>2026-08-15T12:56:24.100000Z</time>
      </trkpt>
      <trkpt lat="30.205073707887532" lon="120.1522876518176">
        <ele>9.72071997821331</ele>
        <time>2026-08-15T12:56:27.100000Z</time>
      </trkpt>
      <trkpt lat="30.204942613134584" lon="120.1518973791816">
        <ele>10.005252741277218</ele>
        <time>2026-08-15T12:56:39.100000Z</time>
      </trkpt>
      <trkpt lat="30.204901666878047" lon="120.15181065714475">
        <ele>10.08227757550776</ele>
        <time>2026-08-15T12:56:42.100000Z</time>
      </trkpt>
      <trkpt lat="30.20487973406804" lon="120.15168020549466">
        <ele>9.609974573366344</ele>
        <time>2026-08-15T12:56:46.100000Z</time>
      </trkpt>
      <trkpt lat="30.204818839957202" lon="120.15151252002991">
        <ele>8.492248267866671</ele>
        <time>2026-08-15T12:56:52Z</time>
      </trkpt>
      <trkpt lat="30.204795186595625" lon="120.1513976496715">
        <ele>8.894770225510001</ele>
        <time>2026-08-15T12:56:56.100000Z</time>
      </trkpt>
      <trkpt lat="30.204679044110467" lon="120.15107965731089">
        <ele>8.787516243755817</ele>
        <time>2026-08-15T12:57:08.100000Z</time>
      </trkpt>
      <trkpt lat="30.204581385670814" lon="120.15076074756384">
        <ele>9.215537297539413</ele>
        <time>2026-08-15T12:57:18.100000Z</time>
      </trkpt>
      <trkpt lat="30.20454280494899" lon="120.15065277582315">
        <ele>10.012658352963626</ele>
        <time>2026-08-15T12:57:21Z</time>
      </trkpt>
      <trkpt lat="30.204531000043747" lon="120.15054745298634">
        <ele>9.324034673161805</ele>
        <time>2026-08-15T12:57:24.100000Z</time>
      </trkpt>
      <trkpt lat="30.20441082888861" lon="120.15022177034156">
        <ele>11.490387454628944</ele>
        <time>2026-08-15T12:57:33.100000Z</time>
      </trkpt>
      <trkpt lat="30.20435525205578" lon="120.15001181936874">
        <ele>10.318292399868369</ele>
        <time>2026-08-15T12:57:39.100000Z</time>
      </trkpt>
      <trkpt lat="30.204311119609983" lon="120.14991376764311">
        <ele>8.443815311416984</ele>
        <time>2026-08-15T12:57:42.100000Z</time>
      </trkpt>
      <trkpt lat="30.2042626578065" lon="120.14969678686924">
        <ele>8.948403951711953</ele>
        <time>2026-08-15T12:57:48.100000Z</time>
      </trkpt>
      <trkpt lat="30.204219671822415" lon="120.1496046134541">
        <ele>9.928183334879577</ele>
        <time>2026-08-15T12:57:51.100000Z</time>
      </trkpt>
      <trkpt lat="30.20419839729178" lon="120.14947616605248">
        <ele>9.44185628183186</ele>
        <time>2026-08-15T12:57:54.100000Z</time>
      </trkpt>
      <trkpt lat="30.204103309849316" lon="120.14916739772364">
        <ele>8.564226502552629</ele>
        <time>2026-08-15T12:58:03Z</time>
      </trkpt>
      <trkpt lat="30.204068498714374" lon="120.1490824946057">
        <ele>9.298862345516682</ele>
        <time>2026-08-15T12:58:06.100000Z</time>
      </trkpt>
      <trkpt lat="30.204052983997617" lon="120.1489730428744">
        <ele>9.2474325876683</ele>
        <time>2026-08-15T12:58:09.100000Z</time>
      </trkpt>
      <trkpt lat="30.203965204633295" lon="120.14867341241435">
        <ele>9.66748807951808</ele>
        <time>2026-08-15T12:58:18.100000Z</time>
      </trkpt>
      <trkpt lat="30.203868139778535" lon="120.14838038038154">
        <ele>8.422736417502165</ele>
        <time>2026-08-15T12:58:27.100000Z</time>
      </trkpt>
      <trkpt lat="30.20378143928671" lon="120.14803221547747">
        <ele>8.631821396760643</ele>
        <time>2026-08-15T12:58:39.100000Z</time>
      </trkpt>
      <trkpt lat="30.203712275378855" lon="120.147800845826">
        <ele>8.757465125992894</ele>
        <time>2026-08-15T12:58:48.100000Z</time>
      </trkpt>
      <trkpt lat="30.203676362263742" lon="120.14772500978266">
        <ele>8.308922613039613</ele>
        <time>2026-08-15T12:58:51Z</time>
      </trkpt>
      <trkpt lat="30.203640018501375" lon="120.14755176788422">
        <ele>8.413111102767289</ele>
        <time>2026-08-15T12:58:57.100000Z</time>
      </trkpt>
      <trkpt lat="30.20353315474632" lon="120.14721810692768">
        <ele>9.875637138262391</ele>
        <time>2026-08-15T12:59:05.100000Z</time>
      </trkpt>
      <trkpt lat="30.203495178810392" lon="120.147070092845">
        <ele>10.01526459865272</ele>
        <time>2026-08-15T12:59:09.100000Z</time>
      </trkpt>
      <trkpt lat="30.20343818303236" lon="120.14693406691562">
        <ele>10.518726157955825</ele>
        <time>2026-08-15T12:59:13.100000Z</time>
      </trkpt>
      <trkpt lat="30.203399363416683" lon="120.14678522341711">
        <ele>9.934769440442324</ele>
        <time>2026-08-15T12:59:17.100000Z</time>
      </trkpt>
      <trkpt lat="30.203357470782407" lon="120.14669173693463">
        <ele>10.23028780799359</ele>
        <time>2026-08-15T12:59:20.100000Z</time>
      </trkpt>
      <trkpt lat="30.2033324264517" lon="120.14650331843669">
        <ele>10.117166600190103</ele>
        <time>2026-08-15T12:59:26.100000Z</time>
      </trkpt>
      <trkpt lat="30.203242787429332" lon="120.14620564944181">
        <ele>10.577011248096824</ele>
        <time>2026-08-15T12:59:35.100000Z</time>
      </trkpt>
      <trkpt lat="30.203158015165783" lon="120.14601117724823">
        <ele>10.541092988103628</ele>
        <time>2026-08-15T12:59:41.100000Z</time>
      </trkpt>
      <trkpt lat="30.203080883883754" lon="120.14570060199017">
        <ele>10.80428344104439</ele>
        <time>2026-08-15T12:59:50.100000Z</time>
      </trkpt>
      <trkpt lat="30.202991413374107" lon="120.14538652594689">
        <ele>12.61634083930403</ele>
        <time>2026-08-15T12:59:59.100000Z</time>
      </trkpt>
      <trkpt lat="30.202978700685712" lon="120.14527876243717">
        <ele>11.795978697016835</ele>
        <time>2026-08-15T13:00:02.100000Z</time>
      </trkpt>
      <trkpt lat="30.2029047423061" lon="120.14507965849998">
        <ele>10.996864314191043</ele>
        <time>2026-08-15T13:00:08Z</time>
      </trkpt>
      <trkpt lat="30.202863887444828" lon="120.14487664604317">
        <ele>9.179746470414102</ele>
        <time>2026-08-15T13:00:14Z</time>
      </trkpt>
      <trkpt lat="30.202780392641742" lon="120.1445693795692">
        <ele>9.446518935263157</ele>
        <time>2026-08-15T13:00:23.100000Z</time>
      </trkpt>
      <trkpt lat="30.202691333313304" lon="120.1442511542317">
        <ele>11.041267098858953</ele>
        <time>2026-08-15T13:00:32.100000Z</time>
      </trkpt>
      <trkpt lat="30.202639865362084" lon="120.14403285844512">
        <ele>9.922888919711113</ele>
        <time>2026-08-15T13:00:38.100000Z</time>
      </trkpt>
      <trkpt lat="30.202671953129983" lon="120.14410870369056">
        <ele>11.053324098698795</ele>
        <time>2026-08-15T13:00:47.100000Z</time>
      </trkpt>
      <trkpt lat="30.202671953129983" lon="120.14410870369056">
        <ele>11.053324098698795</ele>
        <time>2026-08-15T13:00:47.400000Z</time>
      </trkpt>
    </trkseg>
  </trk>
</gpx>