<?xml version="1.0" encoding="UTF-8"?>
<gpx xmlns="http://www.topografix.com/GPX/1/1" xmlns:gpxtpx="http://www.garmin.com/xmlschemas/TrackPointExtension/v1" xmlns:xsi="http://www.w3.org/2001/XMLSchema-instance" xsi:schemaLocation="http://www.topografix.com/GPX/1/1 http://www.topografix.com/GPX/1/1/gpx.xsd" version="1.1" creator="gpx.py -- https://github.com/tkrajina/gpxpy">
  <trk>
    <name>gpx from keep</name>
    <type>Run</type>
    <trkseg>
      <trkpt lat="30.207570499187543" lon="120.1586278289228">
        <ele>6.416054241604506</ele>
        <time>2026-07-26T12:13:50.400000Z</time>
      </trkpt>
      <trkpt lat="30.20770091621968" lon="120.15891840893619">
        <ele>7.419335716404021</ele>
        <time>2026-07-26T12:14:03Z</time>
      </trkpt>
      <trkpt lat="30.207825697712575" lon="120.15921513106623">
        <ele>5.834847406484187</ele>
        <time>2026-07-26T12:14:12Z</time>
      </trkpt>
      <trkpt lat="30.20790725371404" lon="120.15941706278825">
        <ele>5.049488372169435</ele>
        <time>2026-07-26T12:14:18Z</time>
      </trkpt>
      <trkpt lat="30.208065486886916" lon="120.15969625799507">
        <ele>10.143811426125467</ele>
        <time>2026-07-26T12:14:27Z</time>
      </trkpt>
      <trkpt lat="30.208216938789032" lon="120.15999549405247">
        <ele>9.954187461175025</ele>
        <time>2026-07-26T12:14:36Z</time>
      </trkpt>
      <trkpt lat="30.208283998065248" lon="120.16020039263762">
        <ele>9.997226608917117</ele>
        <time>2026-07-26T12:14:42Z</time>
      </trkpt>
      <trkpt lat="30.208343332564205" lon="120.16027986897639">
        <ele>10.20658981334418</ele>
        <time>2026-07-26T12:14:45Z</time>
      </trkpt>
      <trkpt lat="30.208385003847614" lon="120.16038898958911">
        <ele>10.65034047421068</ele>
        <time>2026-07-26T12:14:48Z</time>
      </trkpt>
      <trkpt lat="30.20843911130074" lon="120.16047908715449">
        <ele>9.895175587385893</ele>
        <time>2026-07-26T12:14:51Z</time>
      </trkpt>
      <trkpt lat="30.20850763076971" lon="120.16067846548248">
        <ele>9.91018262784928</ele>
        <time>2026-07-26T12:14:57Z</time>
      </trkpt>
      <trkpt lat="30.208666339206133" lon="120.16095145755007">
        <ele>10.634975578635931</ele>
        <time>2026-07-26T12:15:06Z</time>
      </trkpt>
      <trkpt lat="30.20879921096819" lon="120.16125181174304">
        <ele>10.968599449843168</ele>
        <time>2026-07-26T12:15:15Z</time>
      </trkpt>
      <trkpt lat="30.208928056703765" lon="120.16154991184808">
        <ele>11.007300068624318</ele>
        <time>2026-07-26T12:15:24Z</time>
      </trkpt>
      <trkpt lat="30.20907336427405" lon="120.16181974338143">
        <ele>9.319939468987286</ele>
        <time>2026-07-26T12:15:33Z</time>
      </trkpt>
      <trkpt lat="30.20914251032419" lon="120.1620085333992">
        <ele>8.865104714408517</ele>
        <time>2026-07-26T12:15:39Z</time>
      </trkpt>
      <trkpt lat="30.209294558600458" lon="120.1622971592229">
        <ele>10.296988066285849</ele>
        <time>2026-07-26T12:15:49Z</time>
      </trkpt>
      <trkpt lat="30.209455334041927" lon="120.16266196951058">
        <ele>10.676490051671863</ele>
        <time>2026-07-26T12:16:02Z</time>
      </trkpt>
      <trkpt lat="30.209501632822924" lon="120.16274424659231">
        <ele>7.947223915718496</ele>
        <time>2026-07-26T12:16:05Z</time>
      </trkpt>
      <trkpt lat="30.209565129864547" lon="120.16281793998401">
        <ele>7.5537525452673435</ele>
        <time>2026-07-26T12:16:08Z</time>
      </trkpt>
      <trkpt lat="30.209710504864947" lon="120.16310335950183">
        <ele>6.309653257019818</ele>
        <time>2026-07-26T12:16:17Z</time>
      </trkpt>
      <trkpt lat="30.20978940819714" lon="120.16328769128393">
        <ele>5.771191260777414</ele>
        <time>2026-07-26T12:16:23Z</time>
      </trkpt>
      <trkpt lat="30.2098397079676" lon="120.16336658289406">
        <ele>5.485750522464514</ele>
        <time>2026-07-26T12:16:26.100000Z</time>
      </trkpt>
      <trkpt lat="30.210006892862733" lon="120.1637165597565">
        <ele>5.301127233542502</ele>
        <time>2026-07-26T12:16:38Z</time>
      </trkpt>
      <trkpt lat="30.210182451243845" lon="120.16404433836264">
        <ele>5.784564265049994</ele>
        <time>2026-07-26T12:16:50Z</time>
      </trkpt>
      <trkpt lat="30.21035980999945" lon="120.16438532780711">
        <ele>6.139308771118522</ele>
        <time>2026-07-26T12:17:02Z</time>
      </trkpt>
      <trkpt lat="30.210462911480867" lon="120.16455452848405">
        <ele>6.1158414939418435</ele>
        <time>2026-07-26T12:17:08Z</time>
      </trkpt>
      <trkpt lat="30.210634729495286" lon="120.16487585522107">
        <ele>6.091340851038694</ele>
        <time>2026-07-26T12:17:20Z</time>
      </trkpt>
      <trkpt lat="30.210830107255227" lon="120.16521975965078">
        <ele>5.515245534479618</ele>
        <time>2026-07-26T12:17:32Z</time>
      </trkpt>
      <trkpt lat="30.211013777713422" lon="120.16556062176427">
        <ele>5.2749512223526835</ele>
        <time>2026-07-26T12:17:44Z</time>
      </trkpt>
      <trkpt lat="30.21115907760475" lon="120.16584845545087">
        <ele>7.784837957471609</ele>
        <time>2026-07-26T12:17:53Z</time>
      </trkpt>
      <trkpt lat="30.211301869921986" lon="120.16611505987103">
        <ele>9.66041383612901</ele>
        <time>2026-07-26T12:18:02Z</time>
      </trkpt>
      <trkpt lat="30.21146254869971" lon="120.16639313380506">
        <ele>8.004864217713475</ele>
        <time>2026-07-26T12:18:12Z</time>
      </trkpt>
      <trkpt lat="30.211551106674293" lon="120.16655417658025">
        <ele>8.317229670472443</ele>
        <time>2026-07-26T12:18:18Z</time>
      </trkpt>
      <trkpt lat="30.21160943276628" lon="120.16662794928267">
        <ele>5.870880052447319</ele>
        <time>2026-07-26T12:18:21Z</time>
      </trkpt>
      <trkpt lat="30.21169485430553" lon="120.16680617303042">
        <ele>5.792641429230571</ele>
        <time>2026-07-26T12:18:27Z</time>
      </trkpt>
      <trkpt lat="30.211789840819186" lon="120.16696493740001">
        <ele>6.705441773869097</ele>
        <time>2026-07-26T12:18:33.100000Z</time>
      </trkpt>
      <trkpt lat="30.211826424465013" lon="120.16706124735624">
        <ele>6.941238067112863</ele>
        <time>2026-07-26T12:18:36Z</time>
      </trkpt>
      <trkpt lat="30.2119396237523" lon="120.16722031876421">
        <ele>7.120051990263164</ele>
        <time>2026-07-26T12:18:42Z</time>
      </trkpt>
      <trkpt lat="30.211975333922652" lon="120.16732046346195">
        <ele>8.471949817612767</ele>
        <time>2026-07-26T12:18:45.100000Z</time>
      </trkpt>
      <trkpt lat="30.21212687638372" lon="120.16759648303716">
        <ele>6.720210627652705</ele>
        <time>2026-07-26T12:18:54Z</time>
      </trkpt>
      <trkpt lat="30.212253178797372" lon="120.16788719862402">
        <ele>5.997680961154401</ele>
        <time>2026-07-26T12:19:03Z</time>
      </trkpt>
      <trkpt lat="30.212441055553438" lon="120.1682277578448">
        <ele>5.727286658249795</ele>
        <time>2026-07-26T12:19:15Z</time>
      </trkpt>
      <trkpt lat="30.2126036524966" lon="120.16856899101548">
        <ele>6.035369846969843</ele>
        <time>2026-07-26T12:19:27Z</time>
      </trkpt>
      <trkpt lat="30.212729171967542" lon="120.16884674070579">
        <ele>6.6911038206890225</ele>
        <time>2026-07-26T12:19:36Z</time>
      </trkpt>
      <trkpt lat="30.212878872575097" lon="120.16910998229905">
        <ele>7.644876386038959</ele>
        <time>2026-07-26T12:19:45Z</time>
      </trkpt>
      <trkpt lat="30.213024512618144" lon="120.16939697069604">
        <ele>7.233115476556122</ele>
        <time>2026-07-26T12:19:54Z</time>
      </trkpt>
      <trkpt lat="30.21315506618349" lon="120.16967402704877">
        <ele>7.898292219266295</ele>
        <time>2026-07-26T12:20:03Z</time>
      </trkpt>
      <trkpt lat="30.213309490529145" lon="120.16998231540782">
        <ele>8.149542673490942</ele>
        <time>2026-07-26T12:20:13Z</time>
      </trkpt>
      <trkpt lat="30.21335571670216" lon="120.17006568257369">
        <ele>7.735468586906791</ele>
        <time>2026-07-26T12:20:16Z</time>
      </trkpt>
      <trkpt lat="30.21338765548941" lon="120.17017879309219">
        <ele>7.940844213590026</ele>
        <time>2026-07-26T12:20:19Z</time>
      </trkpt>
      <trkpt lat="30.21354854869538" lon="120.17047884487403">
        <ele>7.407197026535869</ele>
        <time>2026-07-26T12:20:29Z</time>
      </trkpt>
      <trkpt lat="30.21373306580972" lon="120.17081448217543">
        <ele>7.332477350719273</ele>
        <time>2026-07-26T12:20:41.100000Z</time>
      </trkpt>
      <trkpt lat="30.213913158443425" lon="120.17115044372389">
        <ele>7.250088619068265</ele>
        <time>2026-07-26T12:20:53Z</time>
      </trkpt>
      <trkpt lat="30.214105230787673" lon="120.17148998291722">
        <ele>6.380504941567779</ele>
        <time>2026-07-26T12:21:05Z</time>
      </trkpt>
      <trkpt lat="30.214256447408893" lon="120.17184991707943">
        <ele>7.007996409200132</ele>
        <time>2026-07-26T12:21:17.100000Z</time>
      </trkpt>
      <trkpt lat="30.21429518941419" lon="120.17190905434597">
        <ele>6.130156399682164</ele>
        <time>2026-07-26T12:21:20Z</time>
      </trkpt>
      <trkpt lat="30.214290958451063" lon="120.17180389364266">
        <ele>6.004396082833409</ele>
        <time>2026-07-26T12:21:23Z</time>
      </trkpt>
      <trkpt lat="30.21417020036694" lon="120.17167749535696">
        <ele>5.368096494115889</ele>
        <time>2026-07-26T12:21:29Z</time>
      </trkpt>
      <trkpt lat="30.21401132097257" lon="120.1713351102745">
        <ele>6.0423044906929135</ele>
        <time>2026-07-26T12:21:41Z</time>
      </trkpt>
      <trkpt lat="30.21384219137026" lon="120.17101884389875">
        <ele>6.491550139151514</ele>
        <time>2026-07-26T12:21:53Z</time>
      </trkpt>
      <trkpt lat="30.213691394993468" lon="120.17074258750607">
        <ele>7.372815741226077</ele>
        <time>2026-07-26T12:22:02Z</time>
      </trkpt>
      <trkpt lat="30.213555726559157" lon="120.17046954471749">
        <ele>8.275097745470703</ele>
        <time>2026-07-26T12:22:11Z</time>
      </trkpt>
      <trkpt lat="30.213392100524864" lon="120.17016815393102">
        <ele>7.883360884152353</ele>
        <time>2026-07-26T12:22:21Z</time>
      </trkpt>
      <trkpt lat="30.213209857703827" lon="120.16983208519447">
        <ele>7.596051288768649</ele>
        <time>2026-07-26T12:22:32Z</time>
      </trkpt>
      <trkpt lat="30.213109141012442" lon="120.16964807983732">
        <ele>7.535327018238604</ele>
        <time>2026-07-26T12:22:38Z</time>
      </trkpt>
      <trkpt lat="30.21303955857521" lon="120.16945869583543">
        <ele>7.697877261787653</ele>
        <time>2026-07-26T12:22:44Z</time>
      </trkpt>
      <trkpt lat="30.212848212049323" lon="120.16911200002528">
        <ele>7.487882981076837</ele>
        <time>2026-07-26T12:22:56Z</time>
      </trkpt>
      <trkpt lat="30.21271621685818" lon="120.16881506041028">
        <ele>8.19457158818841</ele>
        <time>2026-07-26T12:23:05Z</time>
      </trkpt>
      <trkpt lat="30.212539163740658" lon="120.1684503545091">
        <ele>7.348198039457202</ele>
        <time>2026-07-26T12:23:17.100000Z</time>
      </trkpt>
      <trkpt lat="30.21239677142832" lon="120.16817299579854">
        <ele>7.24076097086072</ele>
        <time>2026-07-26T12:23:26Z</time>
      </trkpt>
      <trkpt lat="30.2122297410705" lon="120.16782725193181">
        <ele>6.549152901396155</ele>
        <time>2026-07-26T12:23:38.100000Z</time>
      </trkpt>
      <trkpt lat="30.21214153040268" lon="120.16763279362185">
        <ele>6.692781483754516</ele>
        <time>2026-07-26T12:23:44Z</time>
      </trkpt>
      <trkpt lat="30.211995320625757" lon="120.16738178438254">
        <ele>7.545014130882919</ele>
        <time>2026-07-26T12:23:53Z</time>
      </trkpt>
      <trkpt lat="30.211911872714815" lon="120.16719068919768">
        <ele>7.661995889618993</ele>
        <time>2026-07-26T12:23:59Z</time>
      </trkpt>
      <trkpt lat="30.211805769131974" lon="120.1670241291338">
        <ele>7.712395149283111</ele>
        <time>2026-07-26T12:24:05Z</time>
      </trkpt>
      <trkpt lat="30.211708748356582" lon="120.16677600371935">
        <ele>6.764242545701563</ele>
        <time>2026-07-26T12:24:17Z</time>
      </trkpt>
      <trkpt lat="30.211708748356582" lon="120.16677600371935">
        <ele>6.764242545701563</ele>
        <time>2026-07-26T12:24:19.500000Z</time>
      </trkpt>
    </trkseg>
  </trk>
</gpx>