<?xml version="1.0" encoding="UTF-8"?>
<gpx xmlns="http://www.topografix.com/GPX/1/1" xmlns:gpxtpx="http://www.garmin.com/xmlschemas/TrackPointExtension/v1" xmlns:xsi="http://www.w3.org/2001/XMLSchema-instance" xsi:schemaLocation="http://www.topografix.com/GPX/1/1 http://www.topografix.com/GPX/1/1/gpx.xsd" version="1.1" creator="gpx.py -- https://github.com/tkrajina/gpxpy">
  <trk>
    <name>gpx from keep</name>
    <type>Run</type>
    <trkseg>
      <trkpt lat="30.2081088399631" lon="120.15993450618795">
        <ele>5.233531000092626</ele>
        <time>2026-09-06T11:09:35.100000Z</time>
      </trkpt>
      <trkpt lat="30.20823688548797" lon="120.16025631257017">
        <ele>5.712606662884355</ele>
        <time>2026-09-06T11:09:47Z</time>
      </trkpt>
      <trkpt lat="30.20833149326633" lon="120.16032313703025">
        <ele>6.329290430992842</ele>
        <time>2026-09-06T11:09:50.100000Z</time>
      </trkpt>
      <trkpt lat="30.208484713960694" lon="120.16062069577131">
        <ele>5.903828515671194</ele>
        <time>2026-09-06T11:10:05.100000Z</time>
      </trkpt>
      <trkpt lat="30.208505306298314" lon="120.16071172555924">
        <ele>6.207047495059669</ele>
        <time>2026-09-06T11:10:08Z</time>
      </trkpt>
      <trkpt lat="30.208665725948492" lon="120.16102369814287">
        <ele>7.0555384224280715</ele>
        <time>2026-09-06T11:10:20Z</time>
      </trkpt>
      <trkpt lat="30.208824148175943" lon="120.16135861453836">
        <ele>7.05615958571434</ele>
        <time>2026-09-06T11:10:32Z</time>
      </trkpt>
      <trkpt lat="30.20901412372072" lon="120.16172203470171">
        <ele>7.072167178615928</ele>
        <time>2026-09-06T11:10:44Z</time>
      </trkpt>
      <trkpt lat="30.20909226453363" lon="120.16185167537054">
        <ele>7.2470021257176995</ele>
        <time>2026-09-06T11:10:50Z</time>
      </trkpt>
      <trkpt lat="30.209076473746574" lon="120.1617624305491">
        <ele>7.387968165799975</ele>
        <time>2026-09-06T11:10:53Z</time>
      </trkpt>
      <trkpt lat="30.209076473746574" lon="120.1617624305491">
        <ele>7.387968165799975</ele>
        <time>2026-09-06T11:10:58.500000Z</time>
      </trkpt>
    </trkseg>
  </trk>
</gpx>