<?xml version="1.0" encoding="UTF-8"?>
<gpx xmlns="http://www.topografix.com/GPX/1/1" xmlns:gpxtpx="http://www.garmin.com/xmlschemas/TrackPointExtension/v1" xmlns:xsi="http://www.w3.org/2001/XMLSchema-instance" xsi:schemaLocation="http://www.topografix.com/GPX/1/1 http://www.topografix.com/GPX/1/1/gpx.xsd" version="1.1" creator="gpx.py -- https://github.com/tkrajina/gpxpy">
  <trk>
    <name>gpx from keep</name>
    <type>Run</type>
    <trkseg>
      <trkpt lat="30.20738621167471" lon="120.1582214930872">
        <ele>7.8959060089388835</ele>
        <time>2026-07-25T12:03:35.400000Z</time>
      </trkpt>
      <trkpt lat="30.207339428122964" lon="120.15813499780118">
        <ele>7.26917012128979</ele>
        <time>2026-07-25T12:03:39.400000Z</time>
      </trkpt>
      <trkpt lat="30.207309725198566" lon="120.15800307328823">
        <ele>7.241487989202142</ele>
        <time>2026-07-25T12:03:43.400000Z</time>
      </trkpt>
      <trkpt lat="30.207163395719235" lon="120.15771348857938">
        <ele>7.114290208555758</ele>
        <time>2026-07-25T12:03:53Z</time>
      </trkpt>
      <trkpt lat="30.20711668368817" lon="120.1576321997974">
        <ele>7.028669905848801</ele>
        <time>2026-07-25T12:03:56.100000Z</time>
      </trkpt>
      <trkpt lat="30.2071075120498" lon="120.15752199962643">
        <ele>10.651863850653172</ele>
        <time>2026-07-25T12:03:59Z</time>
      </trkpt>
      <trkpt lat="30.206997287031616" lon="120.15735574810648">
        <ele>11.932294722646475</ele>
        <time>2026-07-25T12:04:05Z</time>
      </trkpt>
      <trkpt lat="30.2069376582073" lon="120.15716844169097">
        <ele>11.138268252834678</ele>
        <time>2026-07-25T12:04:11Z</time>
      </trkpt>
      <trkpt lat="30.20684845152289" lon="120.15703058453887">
        <ele>11.999216941185296</ele>
        <time>2026-07-25T12:04:17Z</time>
      </trkpt>
      <trkpt lat="30.206762473170155" lon="120.15675542321141">
        <ele>11.543771727010608</ele>
        <time>2026-07-25T12:04:26Z</time>
      </trkpt>
      <trkpt lat="30.206663924772208" lon="120.15660699571215">
        <ele>11.32401086203754</ele>
        <time>2026-07-25T12:04:32Z</time>
      </trkpt>
      <trkpt lat="30.20664175823191" lon="120.15653176887052">
        <ele>11.470190905034542</ele>
        <time>2026-07-25T12:04:35Z</time>
      </trkpt>
      <trkpt lat="30.206560989643894" lon="120.15635648560327">
        <ele>11.817265985533595</ele>
        <time>2026-07-25T12:04:41Z</time>
      </trkpt>
      <trkpt lat="30.20643673749161" lon="120.15600245164899">
        <ele>12.725899113342166</ele>
        <time>2026-07-25T12:04:53Z</time>
      </trkpt>
      <trkpt lat="30.206367031451276" lon="120.15582485076388">
        <ele>12.153992960229516</ele>
        <time>2026-07-25T12:04:59Z</time>
      </trkpt>
      <trkpt lat="30.20631785768889" lon="120.15574226735792">
        <ele>12.609946535900235</ele>
        <time>2026-07-25T12:05:02Z</time>
      </trkpt>
      <trkpt lat="30.20618401078388" lon="120.15538946541515">
        <ele>12.064878677017987</ele>
        <time>2026-07-25T12:05:14Z</time>
      </trkpt>
      <trkpt lat="30.20603355654649" lon="120.15503916214745">
        <ele>12.8319569863379</ele>
        <time>2026-07-25T12:05:26Z</time>
      </trkpt>
      <trkpt lat="30.205897923519068" lon="120.15466943195352">
        <ele>12.766414687037468</ele>
        <time>2026-07-25T12:05:38Z</time>
      </trkpt>
      <trkpt lat="30.205798066233424" lon="120.15437257234358">
        <ele>12.85686691198498</ele>
        <time>2026-07-25T12:05:48Z</time>
      </trkpt>
      <trkpt lat="30.205693769381806" lon="120.15409928020925">
        <ele>13.534943444654346</ele>
        <time>2026-07-25T12:05:57Z</time>
      </trkpt>
      <trkpt lat="30.20556692592961" lon="120.15372874499754">
        <ele>11.259196772240102</ele>
        <time>2026-07-25T12:06:09Z</time>
      </trkpt>
      <trkpt lat="30.205517416794756" lon="120.15355180523021">
        <ele>10.790081749670208</ele>
        <time>2026-07-25T12:06:15Z</time>
      </trkpt>
      <trkpt lat="30.205388414978422" lon="120.15321109203256">
        <ele>12.00707624014467</ele>
        <time>2026-07-25T12:06:27Z</time>
      </trkpt>
      <trkpt lat="30.205309731857657" lon="120.15304214811967">
        <ele>12.431510150432587</ele>
        <time>2026-07-25T12:06:33Z</time>
      </trkpt>
      <trkpt lat="30.20524615381887" lon="120.15277455958778">
        <ele>11.069116993807256</ele>
        <time>2026-07-25T12:06:42Z</time>
      </trkpt>
      <trkpt lat="30.205207101766703" lon="120.15268201615025">
        <ele>12.22427682671696</ele>
        <time>2026-07-25T12:06:45Z</time>
      </trkpt>
      <trkpt lat="30.205186866579812" lon="120.1525805034916">
        <ele>11.806182722561061</ele>
        <time>2026-07-25T12:06:48Z</time>
      </trkpt>
      <trkpt lat="30.205081246205907" lon="120.15231344318823">
        <ele>12.060872889123857</ele>
        <time>2026-07-25T12:06:57Z</time>
      </trkpt>
      <trkpt lat="30.204995593290885" lon="120.15204051239392">
        <ele>11.063766201026738</ele>
        <time>2026-07-25T12:07:06Z</time>
      </trkpt>
      <trkpt lat="30.20487260189549" lon="120.15166872275209">
        <ele>12.550744058564305</ele>
        <time>2026-07-25T12:07:18Z</time>
      </trkpt>
      <trkpt lat="30.20477467762278" lon="120.15141133420848">
        <ele>12.42972582578659</ele>
        <time>2026-07-25T12:07:27Z</time>
      </trkpt>
      <trkpt lat="30.204751551745023" lon="120.1513051266887">
        <ele>11.258327225223184</ele>
        <time>2026-07-25T12:07:30Z</time>
      </trkpt>
      <trkpt lat="30.20461504159335" lon="120.15094437130627">
        <ele>11.34109949041158</ele>
        <time>2026-07-25T12:07:42Z</time>
      </trkpt>
      <trkpt lat="30.20452128403324" lon="120.15062456412848">
        <ele>11.303419324569404</ele>
        <time>2026-07-25T12:07:52Z</time>
      </trkpt>
      <trkpt lat="30.20447714410732" lon="120.15042763310151">
        <ele>12.734750092029572</ele>
        <time>2026-07-25T12:07:58Z</time>
      </trkpt>
      <trkpt lat="30.20443571648653" lon="120.15034126631431">
        <ele>13.14477008394897</ele>
        <time>2026-07-25T12:08:01Z</time>
      </trkpt>
      <trkpt lat="30.204324049113556" lon="120.14996470148604">
        <ele>12.650193146429956</ele>
        <time>2026-07-25T12:08:13Z</time>
      </trkpt>
      <trkpt lat="30.204224537118318" lon="120.14958074443128">
        <ele>10.730567495338619</ele>
        <time>2026-07-25T12:08:25.100000Z</time>
      </trkpt>
      <trkpt lat="30.204135186339357" lon="120.14927990864943">
        <ele>10.7920540869236</ele>
        <time>2026-07-25T12:08:34Z</time>
      </trkpt>
      <trkpt lat="30.204052871356684" lon="120.14909016615384">
        <ele>11.108480269089341</ele>
        <time>2026-07-25T12:08:40Z</time>
      </trkpt>
      <trkpt lat="30.203961791860408" lon="120.14869309785486">
        <ele>10.124456282705069</ele>
        <time>2026-07-25T12:08:52.100000Z</time>
      </trkpt>
      <trkpt lat="30.20385260205611" lon="120.1483069610892">
        <ele>8.57806029357016</ele>
        <time>2026-07-25T12:09:04Z</time>
      </trkpt>
      <trkpt lat="30.203756742347508" lon="120.14801823124692">
        <ele>9.858076333068311</ele>
        <time>2026-07-25T12:09:13Z</time>
      </trkpt>
      <trkpt lat="30.2036347089855" lon="120.1476333399405">
        <ele>9.050097794272006</ele>
        <time>2026-07-25T12:09:25Z</time>
      </trkpt>
      <trkpt lat="30.20357223058443" lon="120.14744085649122">
        <ele>9.869954831898212</ele>
        <time>2026-07-25T12:09:31Z</time>
      </trkpt>
      <trkpt lat="30.20353461192947" lon="120.1472366413794">
        <ele>9.670918240211904</ele>
        <time>2026-07-25T12:09:37Z</time>
      </trkpt>
      <trkpt lat="30.203492338576275" lon="120.14714158048227">
        <ele>10.151855126023293</ele>
        <time>2026-07-25T12:09:40Z</time>
      </trkpt>
      <trkpt lat="30.203473676623013" lon="120.14703874442597">
        <ele>11.180525939911604</ele>
        <time>2026-07-25T12:09:43Z</time>
      </trkpt>
      <trkpt lat="30.20342725539187" lon="120.14694724664598">
        <ele>10.613235087133944</ele>
        <time>2026-07-25T12:09:46.100000Z</time>
      </trkpt>
      <trkpt lat="30.203340790305266" lon="120.14659082624736">
        <ele>11.275191517546773</ele>
        <time>2026-07-25T12:09:56.100000Z</time>
      </trkpt>
      <trkpt lat="30.203288651742614" lon="120.14639851188554">
        <ele>11.614325382746756</ele>
        <time>2026-07-25T12:10:02Z</time>
      </trkpt>
      <trkpt lat="30.20324890152912" lon="120.14631090489672">
        <ele>11.233231562189758</ele>
        <time>2026-07-25T12:10:05Z</time>
      </trkpt>
      <trkpt lat="30.203203838113726" lon="120.1460989074474">
        <ele>11.077018234878778</ele>
        <time>2026-07-25T12:10:11Z</time>
      </trkpt>
      <trkpt lat="30.203105059584047" lon="120.14581984894572">
        <ele>12.765504114329815</ele>
        <time>2026-07-25T12:10:20Z</time>
      </trkpt>
      <trkpt lat="30.203008824893338" lon="120.14542728066337">
        <ele>13.311587191186845</ele>
        <time>2026-07-25T12:10:32Z</time>
      </trkpt>
      <trkpt lat="30.202916848384987" lon="120.14513244112976">
        <ele>13.966825366020203</ele>
        <time>2026-07-25T12:10:41Z</time>
      </trkpt>
      <trkpt lat="30.20285107903265" lon="120.14483529167242">
        <ele>12.59316288959235</ele>
        <time>2026-07-25T12:10:50Z</time>
      </trkpt>
      <trkpt lat="30.20277250413145" lon="120.1445320120569">
        <ele>11.486582240089774</ele>
        <time>2026-07-25T12:10:59Z</time>
      </trkpt>
      <trkpt lat="30.202682317212993" lon="120.14424636589632">
        <ele>11.525733972899616</ele>
        <time>2026-07-25T12:11:08.100000Z</time>
      </trkpt>
      <trkpt lat="30.202610726905235" lon="120.14391939546712">
        <ele>11.986637213267386</ele>
        <time>2026-07-25T12:11:18Z</time>
      </trkpt>
      <trkpt lat="30.20256756046576" lon="120.14382211077096">
        <ele>12.391951333731413</ele>
        <time>2026-07-25T12:11:21Z</time>
      </trkpt>
      <trkpt lat="30.202558798818075" lon="120.1437264387463">
        <ele>12.17976174224168</ele>
        <time>2026-07-25T12:11:24Z</time>
      </trkpt>
      <trkpt lat="30.202481678058415" lon="120.14344513688857">
        <ele>12.985785067081451</ele>
        <time>2026-07-25T12:11:33Z</time>
      </trkpt>
      <trkpt lat="30.20249535500192" lon="120.1435826952827">
        <ele>15.24470899719745</ele>
        <time>2026-07-25T12:11:39Z</time>
      </trkpt>
      <trkpt lat="30.202589780725624" lon="120.14386669693543">
        <ele>13.620466598309577</ele>
        <time>2026-07-25T12:11:48Z</time>
      </trkpt>
      <trkpt lat="30.20267271985573" lon="120.14420526077107">
        <ele>13.446604969911277</ele>
        <time>2026-07-25T12:11:58Z</time>
      </trkpt>
      <trkpt lat="30.202745547172807" lon="120.14446986130135">
        <ele>14.017913494259119</ele>
        <time>2026-07-25T12:12:06Z</time>
      </trkpt>
      <trkpt lat="30.202795580803397" lon="120.14458419331336">
        <ele>14.51807948295027</ele>
        <time>2026-07-25T12:12:10Z</time>
      </trkpt>
      <trkpt lat="30.20286608667034" lon="120.1449475664197">
        <ele>11.971949599683285</ele>
        <time>2026-07-25T12:12:28Z</time>
      </trkpt>
      <trkpt lat="30.20287734320378" lon="120.14498618861656">
        <ele>12.593952862545848</ele>
        <time>2026-07-25T12:12:31Z</time>
      </trkpt>
    </trkseg>
  </trk>
</gpx>